GLOBALSTAR M063 [+]     
1 26081U 00008A   24050.48731341 -.00000083  00000+0 -85135-7 0  9998
2 26081  51.9968 305.4453 0005203 101.7600  70.6319 11.86151254100175
GLOBALSTAR M062 [-]     
1 26082U 00008B   24050.36640047 -.00000072  00000+0  18571-3 0  9991
2 26082  51.9842  78.5079 0007463 158.5032 215.5253 12.43428622436436
GLOBALSTAR M060 [-]     
1 26083U 00008C   24050.50964241  .00000012  00000+0  10234-2 0  9993
2 26083  52.0047 329.6713 0002786 220.3093 310.8016 12.17628123 93444
GLOBALSTAR M064 [-]     
1 26084U 00008D   24050.31518664 -.00000099  00000+0 -22260-3 0  9997
2 26084  52.0042  50.4277 0001506 200.8083 159.2689 11.88515367109569
GLOBALSTAR M065 [+]     
1 31571U 07020A   24050.32665748 -.00000054  00000+0  27844-3 0  9995
2 31571  51.9872 258.9274 0009720 319.3680 211.7429 12.61962790772315
GLOBALSTAR M069 [+]     
1 31573U 07020C   24050.19101878 -.00000075  00000+0  16302-3 0  9991
2 31573  51.9928 215.3180 0001701 102.1775  69.1540 12.62256839773429
GLOBALSTAR M072 [+]     
1 31574U 07020D   24050.50348370 -.00000070  00000+0  18761-3 0  9993
2 31574  52.0096 310.2001 0001000  51.2865 120.3681 12.62267664771737
GLOBALSTAR M071 [P]     
1 31576U 07020F   24050.42060083 -.00000076  00000+0  15565-3 0  9993
2 31576  52.0041 219.6917 0002085 110.6581 264.0944 12.62267531434643
